K09U05R 25.7   0.15 K156R 320.33417  345.72925  215.27698    6.55429  0.3649509  1.44753916   0.7739552  9 MPO164412    17   1    4 days 0.40 M-v 3Eh MPCADO     2802          2009 UR5           20091025
K09U14J 20.5   0.15 K156R 355.72064  102.73379  209.80670   59.72002  0.6798306  0.16449360   3.2989068  9 MPO164413    37   1    5 days 0.42 M-v 3Eh MPCALB     2804          2009 UJ14          20091026
K09U14K 25.5   0.15 K156R 150.91209   52.67803   26.30806    2.16822  0.4648366  0.42851600   1.7424408  5 MPO166375    63   1   14 days 0.48 M-v 3Eh MPCADO     2803          2009 UK14          20091105
K09U17X 21.5   0.15 K156R  43.10556  278.46001  216.14651   10.80391  0.0833955  0.76000162   1.1892132  2 MPO303356   221   2 2009-2014 0.51 M-v 3Eh MPCADO     0804          2009 UX17          20140622
K09U17Y 20.9   0.15 K156R  15.28136   30.56764  202.08261   42.06135  0.3161809  1.33081807   0.8185721  6 MPO166375    18   1   18 days 0.15 M-v 3Eh MPCALB     A802          2009 UY17          20091109
K09U17Z 22.4   0.15 K156R 186.87813  192.53576  152.92683    4.27710  0.6244046  0.26006810   2.4307744  5 MPO167765    43   1   50 days 0.37 M-v 3Eh MPCADO     2803          2009 UZ17          20091211
K09U18W 19.6   0.15 K156R  35.73944   59.82039  227.24752   16.98847  0.4389136  0.68149664   1.2788715  2 MPO248885    98   4 2006-2012 0.43 M-v 3Eh MPCADO     0C03          2009 UW18          20121203
K09U19A 18.2   0.15 K156R  69.13494  114.01304    8.31649   47.80918  0.3003256  0.41875221   1.7694215  9 MPO164414    20   1    1 days 0.38 M-v 38h MPCALB     3804          2009 UA19          20091025
K09U19B 23.3   0.15 K156R  49.53795  150.42012  208.59357    2.52702  0.4532365  0.36690959   1.9323984  7 MPO166376    30   1   23 days 0.44 M-v 3Eh MPCALB     2804          2009 UB19          20091116
K09U19C 25.1   0.15 K156R  79.27384   82.03797  212.02345   11.00514  0.2980581  0.87683849   1.0810762  7 MPO166376    48   1    2 days 0.44 M-v 3Eh MPCALB     2803          2009 UC19          20091026
K09U19D 24.0   0.15 K156R 215.36261  241.58057  204.59396    3.53201  0.4122999  0.46212198   1.6569076  6 MPO166376    44   1   24 days 0.73 M-v 3Eh MPCADO     2803          2009 UD19          20091117
K09U19E 20.5   0.15 K156R 118.86630  349.25607   42.26420   19.97949  0.5366831  0.23031951   2.6358189  5 MPO167765    51   1   42 days 0.41 M-v 38h MPCALB     2804          2009 UE19          20091205
K09U19S 23.4   0.15 K156R 146.51938  229.41858  211.68816   10.07211  0.4707616  0.42719649   1.7460269  7 MPO166376    63   1    9 days 0.58 M-v 3Eh MPCALB     2803          2009 US19          20091102
K09U19T 22.5   0.15 K156R 173.08548  328.94911  212.37111   10.01359  0.6717422  1.17153556   0.8911806  9 MPO164415    24   1    3 days 0.72 M-v 3Eh MPCADO     2802          2009 UT19          20091027
K09U19U 24.8   0.15 K156R  94.19324  153.08314  207.86898   17.41946  0.2380779  0.55825749   1.4607627  9 MPO164415    20   1    1 days 0.41 M-v 38h MPCS       2804          2009 UU19          20091025
K09U19V 24.8   0.15 K156R 218.46458  280.29204   58.22605    1.84238  0.4130958  0.44277018   1.7048407  8 MPO164415    21   1    1 days 0.29 M-v 3Eh MPCS       2804          2009 UV19          20091025
K09U19W 23.2   0.15 K156R 276.64510  296.85670   37.75124   25.76338  0.4024248  0.46866905   1.6414407  8 MPO164415    28   1    5 days 0.57 M-v 3Eh MPCS       2803          2009 UW19          20091029
K09U19X 18.8   0.15 K156R 334.27725  100.70490   61.00264   15.99976  0.8324872  0.70132996   1.2546458  2 MPO202473    28   2 2009-2011 0.28 M-v 3Eh MPCADO     0803          2009 UX19          20110726
K09U19Y 23.4   0.15 K156R  75.24924   99.88188   33.03979    9.05357  0.0307814  0.95169068   1.0236202  1 MPO176873   168   1  186 days 0.49 M-v 3Eh MPCALB     2803          2009 UY19          20100429
K09U19Z 26.2   0.15 K156R 262.29024    4.91639   35.10880    5.25945  0.3789088  0.47592323   1.6247185  6 MPO166376    24   1    7 days 0.59 M-v 3Eh MPCADO     2804          2009 UZ19          20091101
K09U20K 26.3   0.15 K156R   8.04740  277.39837  216.01497    2.84232  0.2069577  0.91143411   1.0535436  6 MPO166376    37   1   15 days 0.52 M-v 3Eh MPCALB     2803          2009 UK20          20091109
K09U20L 23.9   0.15 K156R 173.09833  170.43926  194.69514    2.04145  0.5512643  0.25456076   2.4657086  6 MPO166376    32   1   24 days 0.36 M-v 38h MPCALB     2804          2009 UL20          20091118
K09U28K 19.7   0.15 K156R 280.28616  330.14543   52.67289   27.42316  0.4099885  0.30650255   2.1786125  5 MPO167766   106   1   40 days 0.36 M-v 38h MPCALB     2804          2009 UK28          20091205
K09U28L 24.8   0.15 K156R 332.40061  235.19290  206.32882    2.86959  0.5339890  0.34105056   2.0288824  6 MPO166377    40   1   11 days 0.52 M-v 3Eh MPCADO     2803          2009 UL28          20091106
K09U28M 23.6   0.15 K156R  60.17294    9.78355   32.72823    8.78850  0.4321947  0.37897706   1.8911563  7 MPO166377    38   1   11 days 0.34 M-v 3Eh MPCALB     2804          2009 UM28          20091106
K09U87S 22.0   0.15 K156R 234.69043  323.12590  104.59215    0.53691  0.2397076  0.46921311   1.6401716  2 MPO208301    64   2 2009-2011 0.46 M-v 38h MPCALB     0804          2009 US87          20110918
K09U87T 22.9   0.15 K156R 133.96479  331.68926   35.32204    8.76534  0.5689515  0.23646921   2.5899198  6 MPO166382    28   1   21 days 0.33 M-v 38h MPCALB     2804          2009 UT87          20091116
K09U87U 25.5   0.15 K156R 209.03765  207.50667  216.32822   16.93622  0.3948332  0.45479216   1.6746629  8 MPO164420    22   1    4 days 0.43 M-v 3Eh MPCADO     2804          2009 UU87          20091030
K09U87V 24.8   0.15 K156R 145.97967  179.87572  213.31364   10.56633  0.5824943  0.24480224   2.5308076  7 MPO164420    20   1    3 days 0.41 M-v 3Eh MPCADO     2804          2009 UV87          20091030
K09U87W 28.0   0.15 K156R  23.42754  234.53379  209.64295    1.24376  0.5416889  0.36612609   1.9351543  6 MPO166382    21   1    4 days 0.41 M-v 3Eh MPCALB     2803          2009 UW87          20091031
K09U87X 25.3   0.15 K156R 288.98624   57.29693   35.28396   12.91127  0.1136302  0.85910547   1.0959020  6 MPO166382    43   1   10 days 0.39 M-v 3Eh MPCADO     2803          2009 UX87          20091106
K09U87Y 19.3   0.15 K156R 277.69799  136.04566  353.91519    7.83585  0.6762574  0.31655011   2.1322645  7 MPO166382    56   1   14 days 0.52 M-v 3Eh MPCADO     2803          2009 UY87          20091110
K09U87Z 25.9   0.15 K156R 249.32630   45.29555  218.51421    3.78502  0.1882810  1.11024069   0.9236866  7 MPO166382    31   1   13 days 0.45 M-v 3Eh MPCALB     2802          2009 UZ87          20091109
K09V00A 28.6   0.15 K156R 167.53133  238.83238  224.40901   12.39660  0.2095672  0.80051914   1.1487395  4 MPO277197    10   1    0 days 0.39 M-v 3Eh MPCW       2803          2009 VA            20091106
K09V00P 22.7   0.15 K156R 214.14272  291.91431   48.35076   21.62437  0.3317103  0.61241710   1.3733182  6 MPO166388   127   1   20 days 0.41 M-v 3Eh MPCADO     2803          2009 VP            20091126
K09V00Q 26.3   0.15 K156R 185.46389  353.76944   44.11645    4.75320  0.5815284  0.26455807   2.4031933  5 MPO166388    49   1   14 days 0.71 M-v 3Eh MPCALB     2804          2009 VQ            20091122
K09V00R 28.1   0.15 K156R 300.40982   41.43494   45.45769    5.02958  0.3927768  0.50461217   1.5625391  6 MPO166388    30   1    6 days 0.72 M-v 3Eh MPCALB     2803          2009 VR            20091114
K09V00S 24.9   0.15 K156R 344.43252  105.65607  227.28235   13.97794  0.3340106  0.67340591   1.2890945  7 MPO166388    42   1   14 days 0.39 M-v 3Eh MPCALB     2803          2009 VS            20091122
K09V00T 22.2   0.15 K156R 121.03253  300.13848  214.76162    3.39962  0.3995695  0.61473154   1.3698690  5 MPO170284    68   1   59 days 0.40 M-v 3Eh MPCADO     2803          2009 VT            20100106
K09V00W 21.7   0.15 K156R 127.35963  256.00984   54.48836    7.15527  0.5624450  0.57095898   1.4390176  7 MPO166388   119   1   19 days 0.30 M-v 3Eh MPCH       A803          2009 VW            20091128
K09V00X 26.2   0.15 K156R 134.32348   52.18019   47.21336    6.74240  0.6627018  0.24494621   2.5298158  4 MPO166388    50   1    3 days 0.41 M-v 3Eh MPCADO     2803          2009 VX            20091112
K09V00Z 21.3   0.15 K156R 104.01202  221.41859  233.71288   12.30734  0.3251631  0.58731717   1.4121720  0 MPO335229   162   3 2009-2015 0.33 M-v 3Eh MPCALB     8803          2009 VZ            20150327
K09V01A 18.8   0.15 K156R 179.30319  134.35291  207.60134   34.66496  0.5738819  0.25799856   2.4437561  2 MPO278252    49   2 2009-2013 0.48 M-v 3Eh MPCALB     0804          2009 VA1           20131209
K09V01B 23.7   0.15 K156R 264.80270  218.10479  227.99642   30.93619  0.3000870  0.48931418   1.5949394  8 MPO166388    24   1    7 days 0.43 M-v 38h MPCALB     2804          2009 VB1           20091116
K09V01C 27.0   0.15 K156R  98.84376  233.85848  231.78664    4.12342  0.5113094  0.40737976   1.8022004  6 MPO166388    23   1    9 days 0.72 M-v 3Eh MPCALB     2803          2009 VC1           20091118
K09V01N 24.2   0.15 K156R 317.27792   46.14421  230.84156   23.71705  0.1798678  0.97296454   1.0086443  4 MPO186020    38   2 2009-2010 0.41 M-v 3Eh MPCH       0803          2009 VN1           20101113
K09V01T 29.5   0.15 K156R   7.61821  177.84911  217.54366    0.26481  0.5026654  0.35240081   1.9850805  6 MPO166388    26   1    1 days 0.66 M-v 3Eh MPCALB     2803          2009 VT1           20091111
K09V24J 22.1   0.15 K156R  89.27980   57.49700   37.01822   11.28486  0.4797225  0.40323678   1.8145236  8 MPO166392    24   1   19 days 0.71 M-v 3Eh MPCALB     2803          2009 VJ24          20091128
K09V24K 24.1   0.15 K156R 147.49312   45.13633   26.99061    5.44386  0.4090266  0.42694008   1.7467259  8 MPO166392    29   1    2 days 0.61 M-v 3Eh MPCS       2804          2009 VK24          20091111
